#cP2023  1 16  0  0  0.00000000      96 ORBIT IGS20 HLM  IGS
## 2245  86400.00000000   900.00000000 59960 0.0000000000000
+   31   G01G02G03G04G05G06G07G08G09G10G11G12G13G14G15G16G17
+        G18G19G20G21G22G23G24G25G26G27G29G30G31G32  0  0  0
+          0  0  0  0  0  0  0  0  0  0  0  0  0  0  0  0  0
+          0  0  0  0  0  0  0  0  0  0  0  0  0  0  0  0  0
+          0  0  0  0  0  0  0  0  0  0  0  0  0  0  0  0  0
++         2  2  2  2  2  2  2  3  2  2  2  2  2  2  2  2  2
++         2  2  2  2  2  2  2  2  2  2  2  2  2  2  0  0  0
++         0  0  0  0  0  0  0  0  0  0  0  0  0  0  0  0  0
++         0  0  0  0  0  0  0  0  0  0  0  0  0  0  0  0  0
++         0  0  0  0  0  0  0  0  0  0  0  0  0  0  0  0  0
%c G  cc GPS ccc cccc cccc cccc cccc ccccc ccccc ccccc ccccc
%c cc cc ccc ccc cccc cccc cccc cccc ccccc ccccc ccccc ccccc
%f  1.2500000  1.025000000  0.00000000000  0.000000000000000
%f  0.0000000  0.000000000  0.00000000000  0.000000000000000
%i    0    0    0    0      0      0      0      0         0
%i    0    0    0    0      0      0      0      0         0
/* RAPID ORBIT COMBINATION FROM WEIGHTED AVERAGE OF:        
/* cod emr esa gfz grg jpl ngs sio usn whu                  
/* REFERENCED TO IGS TIME (IGST) AND TO WEIGHTED MEAN POLE: 
/* PCV:IGS20_2233 OL/AL:FES2014b NONE     Y  ORB:CMB CLK:CMB
*  2023  1 16 15 45  0.00000000
PG01 -22093.607799 -14701.399471  -3673.374389    223.697636  6  5  5 107       
PG02  23860.008670  11334.782858   1672.730953   -626.939405  3  5  2  94       
PG03 -12296.027972 -16015.538745  17193.144585   -371.794903  6  8  4 105       
PG04 -17280.911396  -5529.198474  19439.217872    -47.496305  5  6  4  97       
PG05   5881.724685  25331.347057  -5249.111335   -112.215040  5  4  3  90       
PG06 -10889.894803  10544.050999  21889.216494    559.391268  4  4  3 103       
PG07 -24378.033512  -5191.367188  -9417.255291    257.788727  5  6  6 105       
PG08  -7000.056524 -13605.656355 -21740.784158   -103.870910  7  9 10  99       
PG09 -23048.167952   5042.303323  12167.696508   -235.408153  5  6  4 100       
PG10  11481.792459 -15400.209927 -18030.887163    -20.652842  7  4  5 108       
PG11   2517.472302  17470.316151  19868.267812    -80.181507  4  6  5 116       
PG12  10654.153148  18010.807694  16141.387369   -328.818553  4  3  3  93       
PG13  -1876.961911  16567.762454 -20806.250712    460.378659  5  6  4  73       
PG14 -13439.294019  12771.106438 -18968.658784    -48.133146  6  6  4  74       
PG15   9157.988068  13238.766793 -21564.774052      5.145705  5  6  4  98       
PG16   -675.748966 -26185.429485  -2700.281412   -523.656592  8  8  5  96       
PG17 -22996.674874  13383.886020    857.106904    693.745716  8  4  7  80       
PG18  23143.133792   2607.520341 -12898.172340   -101.504376  6  4  5 100       
PG19 -17400.161395  16674.787972  10625.687224    264.919085  8  8  6 103       
PG20    139.238543  25699.009872   7172.198429    456.686447  3  8  4 107       
PG21 -18521.340441 -15903.956031 -10783.300228    153.485648  4  5  2 114       
PG22  13758.154140 -18182.747644  13903.350653    407.167863  6  6  5  69       
PG23  14721.648967  -3203.559348 -21863.725482      2.668020  8  7  9 111       
PG24  20688.273861  15124.041772  -8107.569305    -32.590934  4  6  4 104       
PG25  14793.568366   8224.895362  20226.323759    411.830977  6  5  3  95       
PG26   5287.343003 -23571.445323  10534.119940    240.384398  7  7  7  84       
PG27   4874.389706 -18321.701550 -18653.173190    125.580952  7  4  7 106       
PG29  22344.369132  -1016.866458  14336.265055   -580.744553  4  5  2  96       
PG30 -18322.298684   5595.228898 -18407.467172   -533.102428  6  3  4  95       
PG31   9858.030614 -11929.761714  21449.940480   -206.495093  4  7  4  75       
PG32  20867.760957 -16011.447234   2948.624034   -365.957662  6  7     79       
*  2023  1 16 16  0  0.00000000
PG01 -21549.560493 -14586.388405  -6487.535073    223.693369  7  5  6 106       
PG02  23502.412824  11464.313597   4525.098518   -626.937276  3  5  2  88       
PG03 -12300.510784 -17890.179795  15255.117603   -371.792894  7  8  4 113       
PG04 -15402.472334  -6832.751186  20561.696240    -47.489377  4  6  3  90       
PG05   5684.891976  25779.806573  -2424.165344   -112.216677  5  5  3  95       
PG06 -13067.038817   9437.398299  21197.348840    559.396605  4  4  3 104       
PG07 -25148.319595  -5828.492089  -6818.213777    257.783163  5  5  6  86       
PG08  -4977.560042 -15003.711427 -21339.616616   -103.871668  6 10 10 119       
PG09 -21926.218487   3978.198438  14409.934249   -235.402242  5  7  5  89       
PG10  11778.350303 -13230.018179 -19516.281036    -20.654239  7  4  5 121       
PG11    433.216772  16430.903492  20881.391027    -80.189520  4  6  5 114       
PG12  10491.805028  19781.178123  14088.489028   -328.822584  5  4  2 110       
PG13  -3962.881841  17504.026128 -19691.423237    460.384240  4  6  4  98       
PG14 -13659.733705  10531.946585 -20159.995568    -48.126158  6  5  4  93       
PG15   7370.290449  14790.388035 -21206.765227      5.148353  5  7  4  96       
PG16   -400.246840 -26295.615809    190.245417   -523.655444  8  8  5 108       
PG17 -23003.963602  13149.134795  -2022.764419    693.748333  7  4  7 101       
PG18  24252.369786   3364.146617 -10468.214268   -101.518260  6  4  5  88       
PG19 -18473.145868  17004.998844   8003.083604    264.923818  9  7  7 105       
PG20   -338.179376  24826.085651   9760.751485    456.684652  3  8  4 108       
PG21 -17125.391500 -15561.340097 -13125.158201    153.485716  4  5  3  85       
PG22  15077.925995 -18697.674723  11570.098966    407.175185  6  6  5  86       
PG23  14992.675581   -716.161408 -21915.065308      2.669055  7  7  8 109       
PG24  19641.772531  15007.958086 -10606.753221    -32.605918  3  7  4 102       
PG25  14890.025360  10530.748440  19096.655950    411.834013  6  5  3  97       
PG26   5774.714113 -22254.852902  12889.059369    240.384928  7  7  7  96       
PG27   6614.560054 -19337.275819 -16960.192185    125.572547  7  5  7 115       
PG29  20892.778968    -11.677667  16399.028628   -580.746401  3  4  2 101       
PG30 -20067.798778   4540.166510 -16841.312912   -533.101558  6  3  4  88       
PG31  12037.631408 -10789.162155  20980.483096   -206.496028  4  7  4  85       
PG32  21154.050681 -15876.514266     90.815696   -365.968782  6  7    105       
*  2023  1 16 16 15  0.00000000
PG01 -20716.374272 -14380.479643  -9193.247515    223.689132  7  5  5  99       
PG02  22851.485711  11511.432108   7299.452381   -626.935270  3  4  3  93       
PG03 -12376.162199 -19527.385527  13053.788716   -371.790870  7  8  4 107       
PG04 -13507.517868  -8296.292414  21331.308668    -47.482438  4  5  3  96       
PG05   5452.736752  25920.595646    442.724695   -112.218115  4  6  2  91       
PG06 -15211.769310   8494.074585  20143.581230    559.401938  5  4  2 101       
PG07 -25673.502770  -6306.717958  -4103.606390    257.777396  4  5  6  65       
PG08  -3078.677437 -16465.449500 -20571.132492   -103.872507  6 11 10 122       
PG09 -20673.347373   2706.410805  16403.538426   -235.396344  6  7  5  91       
PG10  12211.624837 -10931.443797 -20658.018230    -20.655428  7  4  5 119       
PG11  -1788.579310  15462.569347  21535.781894    -80.197522  4  7  5 108       
PG12  10408.334459  21307.907026  11790.215168   -328.826962  5  5  2  93       
PG13  -5872.546190  18479.418996 -18240.901384    460.389960  4  6  4  87       
PG14 -14003.731607   8193.153239 -21003.323309    -48.119162  6  5  4  99       
PG15   5698.817243  16387.266137 -20496.886867      5.151443  4  6  4  99       
PG16   -113.058645 -26089.173486   3077.366790   -523.654478  8  8  5 103       
PG17 -22757.433604  12729.008331  -4867.828829    693.750418  6  4  7 101       
PG18  25139.241462   3946.533438  -7859.466288   -101.531988  6  4  4  89       
PG19 -19263.182769  17230.819425   5239.457437    264.928360  9  7  7 103       
PG20   -942.095569  23708.875243  12183.524597    456.682465  3  8  4 100       
PG21 -15464.537371 -15219.696514 -15242.148442    153.485775  4  5  4  96       
PG22  16143.306779 -19131.256227   9040.001524    407.182422  6  7  5  75       
PG23  15394.645395   1736.269361 -21589.419155      2.670132  6  8  8 111       
PG24  18336.672658  14862.012901 -12930.187430    -32.620892  3  7  4 111       
PG25  15082.194402  12678.358837  17632.601963    411.837056  6  5  3  94       
PG26   6372.993859 -20713.013400  15017.056602    240.385440  6  7  7  87       
PG27   8137.998662 -20317.275919 -14975.303450    125.564170  7  6  7 119       
PG29  19316.308964   1192.673217  18179.575451   -580.748445  4  5  2  95       
PG30 -21683.002179   3647.521166 -14986.258608   -533.100718  5  2  4  62       
PG31  14200.360739  -9792.902874  20146.961087   -206.497051  3  7  4  73       
PG32  21192.252435 -15554.171757  -2768.559883   -365.979864  6  8     94       
EOF
